{
  "type": "FeatureCollection",
  "features": [
    {
      "type": "Feature",
      "properties": {
        "norad_id": 61183,
        "name": "GSAT0226 (GALILEO 31)",
        "group": "gnss",
        "lat": -36.06620606282182,
        "lon": 76.53506857692068,
        "alt_km": 23228.257953331282,
        "timestamp": "2025-12-23T11:34:48.411103+00:00",
        "meta_object_name": "GSAT0226 (GALILEO 31)",
        "meta_object_id": "2024-167B",
        "meta_epoch": "2025-12-22T05:43:25.937760",
        "meta_mean_motion": 1.70473707,
        "meta_eccentricity": 0.00011776,
        "meta_inclination": 55.2367,
        "meta_ra_of_asc_node": 226.1757,
        "meta_arg_of_pericenter": 107.8451,
        "meta_mean_anomaly": 74.5096,
        "meta_ephemeris_type": 0,
        "meta_classification_type": "U",
        "meta_norad_cat_id": 61183,
        "meta_element_set_no": 999,
        "meta_rev_at_epoch": 783,
        "meta_bstar": 0,
        "meta_mean_motion_dot": 7.4e-07,
        "meta_mean_motion_ddot": 0,
        "tle_line1": "1 61183U 24167B   25356.23849465  .00000074  00000+0  00000+0 0  9990",
        "tle_line2": "2 61183  55.2367 226.1757 0001177 107.8451  74.5096  1.70473707  7836"
      },
      "geometry": {
        "type": "Point",
        "coordinates": [
          76.53506857692068,
          -36.06620606282182
        ]
      }
    },
    {
      "type": "Feature",
      "properties": {
        "norad_id": 61186,
        "name": "BEIDOU-3 M25 (C47)",
        "group": "gnss",
        "lat": 53.989482134979234,
        "lon": 50.86040747156935,
        "alt_km": 21535.89999897951,
        "timestamp": "2025-12-23T11:34:48.411115+00:00",
        "meta_object_name": "BEIDOU-3 M25 (C47)",
        "meta_object_id": "2024-168B",
        "meta_epoch": "2025-12-22T12:27:11.391840",
        "meta_mean_motion": 1.86230177,
        "meta_eccentricity": 0.0005446,
        "meta_inclination": 54.6334,
        "meta_ra_of_asc_node": 308.3821,
        "meta_arg_of_pericenter": 299.7491,
        "meta_mean_anomaly": 231.473,
        "meta_ephemeris_type": 0,
        "meta_classification_type": "U",
        "meta_norad_cat_id": 61186,
        "meta_element_set_no": 999,
        "meta_rev_at_epoch": 849,
        "meta_bstar": 0,
        "meta_mean_motion_dot": -5.7e-07,
        "meta_mean_motion_ddot": 0,
        "tle_line1": "1 61186U 24168B   25356.51888185 -.00000057  00000+0  00000+0 0  9999",
        "tle_line2": "2 61186  54.6334 308.3821 0005446 299.7491 231.4730  1.86230177  8490"
      },
      "geometry": {
        "type": "Point",
        "coordinates": [
          50.86040747156935,
          53.989482134979234
        ]
      }
    },
    {
      "type": "Feature",
      "properties": {
        "norad_id": 61187,
        "name": "BEIDOU-3 M27 (C49)",
        "group": "gnss",
        "lat": -40.14520424079355,
        "lon": 165.07617696291595,
        "alt_km": 21535.122714233454,
        "timestamp": "2025-12-23T11:34:48.411126+00:00",
        "meta_object_name": "BEIDOU-3 M27 (C49)",
        "meta_object_id": "2024-168C",
        "meta_epoch": "2025-12-22T20:59:38.843232",
        "meta_mean_motion": 1.8623031,
        "meta_eccentricity": 0.0002551,
        "meta_inclination": 54.6286,
        "meta_ra_of_asc_node": 308.3534,
        "meta_arg_of_pericenter": 340.6202,
        "meta_mean_anomaly": 204.1443,
        "meta_ephemeris_type": 0,
        "meta_classification_type": "U",
        "meta_norad_cat_id": 61187,
        "meta_element_set_no": 999,
        "meta_rev_at_epoch": 597,
        "meta_bstar": 0,
        "meta_mean_motion_dot": -5.6e-07,
        "meta_mean_motion_ddot": 0,
        "tle_line1": "1 61187U 24168C   25356.87475513 -.00000056  00000+0  00000+0 0  9995",
        "tle_line2": "2 61187  54.6286 308.3534 0002551 340.6202 204.1443  1.86230310  5975"
      },
      "geometry": {
        "type": "Point",
        "coordinates": [
          165.07617696291595,
          -40.14520424079355
        ]
      }
    },
    {
      "type": "Feature",
      "properties": {
        "norad_id": 62339,
        "name": "GPS BIII-7  (PRN 01)",
        "group": "gnss",
        "lat": 54.17308657738965,
        "lon": 84.59385922675017,
        "alt_km": 20187.975946552393,
        "timestamp": "2025-12-23T11:34:48.411138+00:00",
        "meta_object_name": "GPS BIII-7  (PRN 01)",
        "meta_object_id": "2024-242A",
        "meta_epoch": "2025-12-22T12:02:33.556992",
        "meta_mean_motion": 2.00568132,
        "meta_eccentricity": 0.00128077,
        "meta_inclination": 54.9208,
        "meta_ra_of_asc_node": 341.3454,
        "meta_arg_of_pericenter": 346.2078,
        "meta_mean_anomaly": 123.2241,
        "meta_ephemeris_type": 0,
        "meta_classification_type": "U",
        "meta_norad_cat_id": 62339,
        "meta_element_set_no": 999,
        "meta_rev_at_epoch": 771,
        "meta_bstar": 0,
        "meta_mean_motion_dot": -6.9e-07,
        "meta_mean_motion_ddot": 0,
        "tle_line1": "1 62339U 24242A   25356.50177728 -.00000069  00000+0  00000+0 0  9999",
        "tle_line2": "2 62339  54.9208 341.3454 0012807 346.2078 123.2241  2.00568132  7712"
      },
      "geometry": {
        "type": "Point",
        "coordinates": [
          84.59385922675017,
          54.17308657738965
        ]
      }
    },
    {
      "type": "Feature",
      "properties": {
        "norad_id": 62850,
        "name": "NVS-02 (IRNSS-1K)",
        "group": "gnss",
        "lat": -18.255200541343406,
        "lon": -156.82479909166418,
        "alt_km": 26658.037374609466,
        "timestamp": "2025-12-23T11:34:48.411148+00:00",
        "meta_object_name": "NVS-02 (IRNSS-1K)",
        "meta_object_id": "2025-020A",
        "meta_epoch": "2025-12-22T04:45:05.885856",
        "meta_mean_motion": 2.17601308,
        "meta_eccentricity": 0.73473359,
        "meta_inclination": 20.961,
        "meta_ra_of_asc_node": 324.2351,
        "meta_arg_of_pericenter": 32.365,
        "meta_mean_anomaly": 356.4574,
        "meta_ephemeris_type": 0,
        "meta_classification_type": "U",
        "meta_norad_cat_id": 62850,
        "meta_element_set_no": 999,
        "meta_rev_at_epoch": 712,
        "meta_bstar": 0.00023462008,
        "meta_mean_motion_dot": 1.43e-06,
        "meta_mean_motion_ddot": 0,
        "tle_line1": "1 62850U 25020A   25356.19798479  .00000143  00000+0  23462-3 0  9992",
        "tle_line2": "2 62850  20.9610 324.2351 7347335  32.3650 356.4574  2.17601308  7124"
      },
      "geometry": {
        "type": "Point",
        "coordinates": [
          -156.82479909166418,
          -18.255200541343406
        ]
      }
    },
    {
      "type": "Feature",
      "properties": {
        "norad_id": 62876,
        "name": "QZS-6 (QZSS/PRN 200)",
        "group": "gnss",
        "lat": -0.057565413209345766,
        "lon": -3.470522612451202,
        "alt_km": 35784.65775370497,
        "timestamp": "2025-12-23T11:34:48.411159+00:00",
        "meta_object_name": "QZS-6 (QZSS/PRN 200)",
        "meta_object_id": "2025-023A",
        "meta_epoch": "2025-12-22T22:09:17.775360",
        "meta_mean_motion": 1.00271462,
        "meta_eccentricity": 0.00015575,
        "meta_inclination": 0.0542,
        "meta_ra_of_asc_node": 72.0389,
        "meta_arg_of_pericenter": 208.3072,
        "meta_mean_anomaly": 234.2443,
        "meta_ephemeris_type": 0,
        "meta_classification_type": "U",
        "meta_norad_cat_id": 62876,
        "meta_element_set_no": 999,
        "meta_rev_at_epoch": 319,
        "meta_bstar": 0,
        "meta_mean_motion_dot": -2.12e-06,
        "meta_mean_motion_ddot": 0,
        "tle_line1": "1 62876U 25023A   25356.92312240 -.00000212  00000+0  00000+0 0  9999",
        "tle_line2": "2 62876   0.0542  72.0389 0001557 208.3072 234.2443  1.00271462  3199"
      },
      "geometry": {
        "type": "Point",
        "coordinates": [
          -3.470522612451202,
          -0.057565413209345766
        ]
      }
    },
    {
      "type": "Feature",
      "properties": {
        "norad_id": 63130,
        "name": "COSMOS 2584 (704K)",
        "group": "gnss",
        "lat": -52.2534417214156,
        "lon": -64.17534085535415,
        "alt_km": 19117.26055406488,
        "timestamp": "2025-12-23T11:34:48.411169+00:00",
        "meta_object_name": "COSMOS 2584 (704K)",
        "meta_object_id": "2025-042A",
        "meta_epoch": "2025-12-22T05:31:29.288640",
        "meta_mean_motion": 2.1310305,
        "meta_eccentricity": 0.00077501,
        "meta_inclination": 64.9809,
        "meta_ra_of_asc_node": 78.8228,
        "meta_arg_of_pericenter": 219.7586,
        "meta_mean_anomaly": 140.2275,
        "meta_ephemeris_type": 0,
        "meta_classification_type": "U",
        "meta_norad_cat_id": 63130,
        "meta_element_set_no": 999,
        "meta_rev_at_epoch": 627,
        "meta_bstar": 0,
        "meta_mean_motion_dot": -4e-08,
        "meta_mean_motion_ddot": 0,
        "tle_line1": "1 63130U 25042A   25356.23020010 -.00000004  00000+0  00000+0 0  9998",
        "tle_line2": "2 63130  64.9809  78.8228 0007750 219.7586 140.2275  2.13103050  6274"
      },
      "geometry": {
        "type": "Point",
        "coordinates": [
          -64.17534085535415,
          -52.2534417214156
        ]
      }
    }
  ]
}